IRIDIUM 150             
1 43257U 18030J   25337.79628994 -.00000098  00000+0 -42047-4 0  9996
2 43257  86.3974  12.1478 0002157  98.9246 261.2194 14.34217517402158
IRIDIUM 143             
1 43258U 18030K   25337.84703071  .00000348  00000+0  11731-3 0  9994
2 43258  86.3985  12.2119 0002322 101.2448 258.9009 14.34220607402095
IRIDIUM 161             
1 43478U 18047C   25337.93333691  .00000539  00000+0  15436-3 0  9991
2 43478  86.4513 170.0577 0002031  81.5113 278.6318 14.43276954396971
IRIDIUM 152             
1 43479U 18047D   25337.61044329  .00000152  00000+0  47158-4 0  9992
2 43479  86.3983 170.0530 0001881  85.0701 275.0710 14.34217517394453
IRIDIUM 147             
1 43480U 18047E   25337.82608672  .00000176  00000+0  55752-4 0  9999
2 43480  86.3986 169.9648 0002096  85.5118 274.6317 14.34218055394480
IRIDIUM 110             
1 43481U 18047F   25337.90219804  .00000168  00000+0  52967-4 0  9990
2 43481  86.3989 170.0196 0001907  73.2581 286.8824 14.34217582394485
IRIDIUM 162             
1 43482U 18047G   25337.92705045  .00000210  00000+0  56506-4 0  9991
2 43482  86.4508 169.9536 0001645  89.3871 270.7518 14.43281993396962
IRIDIUM 160             
1 43569U 18061A   25337.98757517 -.00000059  00000+0 -28015-4 0  9997
2 43569  86.3971 138.4080 0001937  84.9298 275.2119 14.34216863385390
